{
  "features": [
    {
      "geometry": {
        "coordinates": [
          [
            1,
            1.5
          ],
          [
            2,
            1
          ],
          [
            3,
            0.4
          ],
          [
            4,
            0
          ]
        ],
        "type": "LineString"
      },
      "properties": {
        "id": "sample-river",
        "name": "Sample River",
        "rank": 2,
        "status": "canon",
        "subtype": "river",
        "summary": "A placeholder river flowing from the highlands to Sample Port.",
        "tags": [
          "sample"
        ],
        "type": "route"
      },
      "type": "Feature"
    },
    {
      "geometry": {
        "coordinates": [
          [
            1.5,
            0.3
          ],
          [
            2.5,
            0.2
          ],
          [
            4,
            0
          ]
        ],
        "type": "LineString"
      },
      "properties": {
        "id": "sample-road",
        "name": "Sample Road",
        "rank": 3,
        "status": "canon",
        "subtype": "road",
        "summary": "A placeholder road connecting Sampleton to Sample Port.",
        "tags": [
          "sample"
        ],
        "type": "route"
      },
      "type": "Feature"
    }
  ],
  "type": "FeatureCollection"
}
